*******************************************************************************
Ephemeris / WWW_USER Mon Jul 15 19:22:32 2024 Pasadena, USA      / Horizons    
*******************************************************************************
Target body name: (2018 RB1)                      {source: JPL#5}
Center body name: Earth (399)                     {source: DE441}
Center-site name: Gemini South Obs., Cerro Pachon
*******************************************************************************
Start time      : A.D. 2019-Jan-29 23:52:00.0000 UT      
Stop  time      : A.D. 2019-Jan-30 10:00:00.0000 UT      
Step-size       : 1 minutes
*******************************************************************************
Target pole/equ : undefined
Target radii    : undefined                                                    
Center geodetic : 289.2634, -30.2406227, 2.71233  {E-lon(deg),Lat(deg),Alt(km)}
Center cylindric: 289.2634,5517.21435,-3194.81213 {E-lon(deg),Dxy(km),Dz(km)}
Center pole/equ : ITRF93                          {East-longitude positive}
Center radii    : 6378.137, 6378.137, 6356.752 km {Equator_a, b, pole_c}       
Target primary  : Sun
Vis. interferer : MOON (R_eq= 1737.400) km        {source: DE441}
Rel. light bend : Sun                             {source: DE441}
Rel. lght bnd GM: 1.3271E+11 km^3/s^2                                          
Small-body perts: Yes                             {source: SB441-N16}
Atmos refraction: NO (AIRLESS)
RA format       : HMS
Time format     : CAL 
Calendar mode   : Mixed Julian/Gregorian
RTS-only print  : NO       
EOP file        : eop.240715.p241008                                           
EOP coverage    : DATA-BASED 1962-JAN-20 TO 2024-JUL-15. PREDICTS-> 2024-OCT-07
Units conversion: 1 au= 149597870.700 km, c= 299792.458 km/s, 1 day= 86400.0 s 
Table cut-offs 1: Elevation (-90.0deg=NO ),Airmass (>38.000=NO), Daylight (YES)
Table cut-offs 2: Solar elongation (  0.0,180.0=NO ),Local Hour Angle( 0.0=NO )
Table cut-offs 3: RA/DEC angular rate (     0.0=NO )                           
*******************************************************************************
Initial IAU76/J2000 heliocentric ecliptic osculating elements (au, days, deg.):
  EPOCH=  2458368.5 ! 2018-Sep-07.00 (TDB)         Residual RMS= .299          
   EC= .2816093255492492   QR= .7991213126369837   TP= 2458438.7854507864      
   OM= 166.9631715555783   W=  267.8210074013559   IN= 5.127543488636634       
  Equivalent ICRF heliocentric cartesian coordinates (au, au/d):
   X= 9.883258176612897E-01  Y=-2.654573099408967E-01  Z=-1.095366816313374E-01
  VX= 1.112505236628486E-04 VY= 1.667631342697191E-02 VZ= 5.559084906068471E-03
Asteroid physical parameters (km, seconds, rotational period in hours):        
   GM= n.a.                RAD= n.a.               ROTPER= n.a.                
   H= 27.9                 G= .150                 B-V= n.a.                   
                           ALBEDO= n.a.            STYP= n.a.                  
*******************************************************************************
 Date__(UT)__HR:MN     R.A._________(ICRF)_________DEC
******************************************************
$$SOE
 2019-Jan-29 23:52 C   15 24 36.672916 -18 23 23.15045
 2019-Jan-29 23:53 C   15 24 36.781463 -18 23 23.22335
 2019-Jan-29 23:54 C   15 24 36.890008 -18 23 23.29632
 2019-Jan-29 23:55 C   15 24 36.998550 -18 23 23.36934
 2019-Jan-29 23:56 C   15 24 37.107091 -18 23 23.44243
 2019-Jan-29 23:57 C   15 24 37.215630 -18 23 23.51557
 2019-Jan-29 23:58 C   15 24 37.324167 -18 23 23.58878
 2019-Jan-29 23:59 C   15 24 37.432702 -18 23 23.66205
 2019-Jan-30 00:00 C   15 24 37.541234 -18 23 23.73538
 2019-Jan-30 00:01 C   15 24 37.649764 -18 23 23.80877
 2019-Jan-30 00:02 C   15 24 37.758292 -18 23 23.88222
 2019-Jan-30 00:03 C   15 24 37.866817 -18 23 23.95573
 2019-Jan-30 00:04 C   15 24 37.975340 -18 23 24.02930
 2019-Jan-30 00:05 C   15 24 38.083860 -18 23 24.10293
 2019-Jan-30 00:06 C   15 24 38.192378 -18 23 24.17662
 2019-Jan-30 00:07 C   15 24 38.300893 -18 23 24.25037
 2019-Jan-30 00:08 C   15 24 38.409405 -18 23 24.32418
 2019-Jan-30 00:09 C   15 24 38.517915 -18 23 24.39806
 2019-Jan-30 00:10 N   15 24 38.626421 -18 23 24.47199
 2019-Jan-30 00:11 N   15 24 38.734925 -18 23 24.54598
 2019-Jan-30 00:12 N   15 24 38.843426 -18 23 24.62003
 2019-Jan-30 00:13 N   15 24 38.951923 -18 23 24.69414
 2019-Jan-30 00:14 N   15 24 39.060418 -18 23 24.76831
 2019-Jan-30 00:15 N   15 24 39.168909 -18 23 24.84255
 2019-Jan-30 00:16 N   15 24 39.277397 -18 23 24.91684
 2019-Jan-30 00:17 N   15 24 39.385882 -18 23 24.99119
 2019-Jan-30 00:18 N   15 24 39.494363 -18 23 25.06560
 2019-Jan-30 00:19 N   15 24 39.602841 -18 23 25.14007
 2019-Jan-30 00:20 N   15 24 39.711316 -18 23 25.21460
 2019-Jan-30 00:21 N   15 24 39.819787 -18 23 25.28919
 2019-Jan-30 00:22 N   15 24 39.928254 -18 23 25.36384
 2019-Jan-30 00:23 N   15 24 40.036718 -18 23 25.43855
 2019-Jan-30 00:24 N   15 24 40.145177 -18 23 25.51332
 2019-Jan-30 00:25 N   15 24 40.253634 -18 23 25.58814
 2019-Jan-30 00:26 N   15 24 40.362086 -18 23 25.66303
 2019-Jan-30 00:27 N   15 24 40.470534 -18 23 25.73798
 2019-Jan-30 00:28 N   15 24 40.578978 -18 23 25.81298
 2019-Jan-30 00:29 N   15 24 40.687418 -18 23 25.88805
 2019-Jan-30 00:30 N   15 24 40.795854 -18 23 25.96317
 2019-Jan-30 00:31 N   15 24 40.904286 -18 23 26.03835
 2019-Jan-30 00:32 N   15 24 41.012714 -18 23 26.11359
 2019-Jan-30 00:33 N   15 24 41.121137 -18 23 26.18889
 2019-Jan-30 00:34 N   15 24 41.229556 -18 23 26.26425
 2019-Jan-30 00:35 N   15 24 41.337970 -18 23 26.33966
 2019-Jan-30 00:36 N   15 24 41.446380 -18 23 26.41514
 2019-Jan-30 00:37 N   15 24 41.554786 -18 23 26.49067
 2019-Jan-30 00:38 N   15 24 41.663186 -18 23 26.56626
 2019-Jan-30 00:39 N   15 24 41.771583 -18 23 26.64191
 2019-Jan-30 00:40 N   15 24 41.879974 -18 23 26.71762
 2019-Jan-30 00:41 A   15 24 41.988360 -18 23 26.79339
 2019-Jan-30 00:42 A   15 24 42.096742 -18 23 26.86921
 2019-Jan-30 00:43 A   15 24 42.205119 -18 23 26.94509
 2019-Jan-30 00:44 A   15 24 42.313490 -18 23 27.02103
 2019-Jan-30 00:45 A   15 24 42.421857 -18 23 27.09703
 2019-Jan-30 00:46 A   15 24 42.530218 -18 23 27.17308
 2019-Jan-30 00:47 A   15 24 42.638575 -18 23 27.24920
 2019-Jan-30 00:48 A   15 24 42.746926 -18 23 27.32537
 2019-Jan-30 00:49 A   15 24 42.855272 -18 23 27.40159
 2019-Jan-30 00:50 A   15 24 42.963612 -18 23 27.47788
 2019-Jan-30 00:51 A   15 24 43.071947 -18 23 27.55422
 2019-Jan-30 00:52 A   15 24 43.180277 -18 23 27.63062
 2019-Jan-30 00:53 A   15 24 43.288600 -18 23 27.70707
 2019-Jan-30 00:54 A   15 24 43.396919 -18 23 27.78359
 2019-Jan-30 00:55 A   15 24 43.505231 -18 23 27.86016
 2019-Jan-30 00:56 A   15 24 43.613538 -18 23 27.93678
 2019-Jan-30 00:57 A   15 24 43.721840 -18 23 28.01346
 2019-Jan-30 00:58 A   15 24 43.830135 -18 23 28.09020
 2019-Jan-30 00:59 A   15 24 43.938424 -18 23 28.16700
 2019-Jan-30 01:00 A   15 24 44.046708 -18 23 28.24385
 2019-Jan-30 01:01 A   15 24 44.154985 -18 23 28.32076
 2019-Jan-30 01:02 A   15 24 44.263256 -18 23 28.39772
 2019-Jan-30 01:03 A   15 24 44.371521 -18 23 28.47474
 2019-Jan-30 01:04 A   15 24 44.479780 -18 23 28.55182
 2019-Jan-30 01:05 A   15 24 44.588033 -18 23 28.62895
 2019-Jan-30 01:06 A   15 24 44.696279 -18 23 28.70614
 2019-Jan-30 01:07 A   15 24 44.804519 -18 23 28.78338
 2019-Jan-30 01:08 A   15 24 44.912753 -18 23 28.86068
 2019-Jan-30 01:09 A   15 24 45.020980 -18 23 28.93803
 2019-Jan-30 01:10 A   15 24 45.129200 -18 23 29.01544
 2019-Jan-30 01:11 A   15 24 45.237414 -18 23 29.09290
 2019-Jan-30 01:12 A   15 24 45.345621 -18 23 29.17042
 2019-Jan-30 01:13 A   15 24 45.453821 -18 23 29.24799
 2019-Jan-30 01:14     15 24 45.562015 -18 23 29.32562
 2019-Jan-30 01:15     15 24 45.670201 -18 23 29.40330
 2019-Jan-30 01:16     15 24 45.778381 -18 23 29.48103
 2019-Jan-30 01:17     15 24 45.886554 -18 23 29.55882
 2019-Jan-30 01:18     15 24 45.994720 -18 23 29.63667
 2019-Jan-30 01:19     15 24 46.102878 -18 23 29.71457
 2019-Jan-30 01:20     15 24 46.211030 -18 23 29.79252
 2019-Jan-30 01:21     15 24 46.319174 -18 23 29.87052
 2019-Jan-30 01:22     15 24 46.427311 -18 23 29.94858
 2019-Jan-30 01:23     15 24 46.535441 -18 23 30.02669
 2019-Jan-30 01:24     15 24 46.643563 -18 23 30.10486
 2019-Jan-30 01:25     15 24 46.751678 -18 23 30.18308
 2019-Jan-30 01:26     15 24 46.859785 -18 23 30.26135
 2019-Jan-30 01:27     15 24 46.967885 -18 23 30.33968
 2019-Jan-30 01:28     15 24 47.075977 -18 23 30.41806
 2019-Jan-30 01:29     15 24 47.184062 -18 23 30.49649
 2019-Jan-30 01:30     15 24 47.292139 -18 23 30.57497
 2019-Jan-30 01:31     15 24 47.400208 -18 23 30.65350
 2019-Jan-30 01:32     15 24 47.508269 -18 23 30.73209
 2019-Jan-30 01:33     15 24 47.616322 -18 23 30.81073
 2019-Jan-30 01:34     15 24 47.724368 -18 23 30.88942
 2019-Jan-30 01:35     15 24 47.832405 -18 23 30.96817
 2019-Jan-30 01:36     15 24 47.940434 -18 23 31.04696
 2019-Jan-30 01:37     15 24 48.048455 -18 23 31.12581
 2019-Jan-30 01:38     15 24 48.156468 -18 23 31.20470
 2019-Jan-30 01:39     15 24 48.264473 -18 23 31.28365
 2019-Jan-30 01:40     15 24 48.372470 -18 23 31.36265
 2019-Jan-30 01:41     15 24 48.480458 -18 23 31.44170
 2019-Jan-30 01:42     15 24 48.588438 -18 23 31.52080
 2019-Jan-30 01:43     15 24 48.696409 -18 23 31.59996
 2019-Jan-30 01:44     15 24 48.804372 -18 23 31.67916
 2019-Jan-30 01:45     15 24 48.912326 -18 23 31.75841
 2019-Jan-30 01:46     15 24 49.020272 -18 23 31.83771
 2019-Jan-30 01:47     15 24 49.128209 -18 23 31.91706
 2019-Jan-30 01:48     15 24 49.236137 -18 23 31.99647
 2019-Jan-30 01:49     15 24 49.344057 -18 23 32.07592
 2019-Jan-30 01:50     15 24 49.451967 -18 23 32.15542
 2019-Jan-30 01:51     15 24 49.559869 -18 23 32.23497
 2019-Jan-30 01:52     15 24 49.667762 -18 23 32.31457
 2019-Jan-30 01:53     15 24 49.775646 -18 23 32.39422
 2019-Jan-30 01:54     15 24 49.883521 -18 23 32.47391
